      2.10          N: GNSS NAV DATA                        RINEX VERSION / TYPE
fic2rin                                 06/18/2020 00:17:42 PGM / RUN BY / DATE
                                                            END OF HEADER
 7 20  6 17 12  0  0.0-3.065168857574e-04-8.753886504564e-12 0.000000000000e+00
    1.110000000000e+02 5.893750000000e+01 4.489472718845e-09-2.480054517940e+00
    2.723187208176e-06 1.399024238344e-02 1.110509037971e-05 5.153667932510e+03
    3.024000000000e+05 1.918524503708e-07-4.396479864291e-01-2.030283212662e-07
    9.533051272250e-01 1.601562500000e+02-2.389600313770e+00-7.784252816804e-09
    6.785996949726e-11 1.000000000000e+00 2.110000000000e+03 0.000000000000e+00
    3.400000000000e+00 0.000000000000e+00-1.117587089539e-08 1.110000000000e+02
    2.952000000000e+05 4.000000000000e+00
19 20  6 17 12  0  0.0-1.440164633095e-04 5.115907697473e-12 0.000000000000e+00
    6.000000000000e+00-8.384375000000e+01 4.144815505346e-09 2.965254818263e+00
   -4.239380359650e-06 9.459885186516e-03 4.475936293602e-06 5.153691623688e+03
    3.024000000000e+05 1.955777406693e-07 1.746779343045e+00-3.352761268616e-08
    9.818845031793e-01 3.031875000000e+02 1.641648871139e+00-7.897471818544e-09
   -3.760870941085e-10 1.000000000000e+00 2.110000000000e+03 0.000000000000e+00
    2.400000000000e+00 0.000000000000e+00-1.536682248116e-08 6.000000000000e+00
    2.952000000000e+05 4.000000000000e+00
32 20  6 17 12  0  0.0 3.015743568540e-04 6.821210263297e-12 0.000000000000e+00
    7.000000000000e+00-2.540625000000e+01 4.798414158924e-09 1.089928377903e+00
   -1.484528183937e-06 4.046693677083e-03 7.187947630882e-06 5.153721082687e+03
    3.024000000000e+05-2.235174179077e-08-1.505233011042e+00 5.401670932770e-08
    9.563892306389e-01 2.363437500000e+02-2.433961850384e+00-8.144624970607e-09
   -3.214419607765e-10 1.000000000000e+00 2.110000000000e+03 0.000000000000e+00
    2.400000000000e+00 0.000000000000e+00 4.656612873077e-10 7.000000000000e+00
    2.952000000000e+05 4.000000000000e+00
29 20  6 17 12  0  0.0-1.298859715462e-04-8.640199666843e-12 0.000000000000e+00
    1.800000000000e+01-7.468750000000e+01 4.028024926263e-09 7.561023569609e-01
   -4.099681973457e-06 1.545149250887e-03 5.465000867844e-06 5.153569396973e+03
    3.024000000000e+05-3.352761268616e-08 1.712950172919e+00-7.450580596924e-09
    9.853395733597e-01 2.875937500000e+02 1.973340441939e+00-7.937830642508e-09
   -3.907305612105e-10 1.000000000000e+00 2.110000000000e+03 0.000000000000e+00
    2.400000000000e+00 0.000000000000e+00-9.778887033463e-09 1.800000000000e+01
    2.952000000000e+05 4.000000000000e+00
16 20  6 17 12  0  0.0-1.715528778732e-04-4.661160346586e-12 0.000000000000e+00
    1.400000000000e+01 6.662500000000e+01 4.545189325379e-09 1.252463613337e+00
    3.697350621223e-06 1.145380444359e-02 3.671273589134e-06 5.153775953293e+03
    3.024000000000e+05-7.636845111847e-08 6.852121497907e-01 1.583248376846e-07
    9.783970659364e-01 3.199687500000e+02 6.358174069528e-01-8.366419923543e-09
    1.678641350722e-11 1.000000000000e+00 2.110000000000e+03 0.000000000000e+00
    2.400000000000e+00 0.000000000000e+00-1.071020960808e-08 1.400000000000e+01
    2.952000000000e+05 4.000000000000e+00
24 20  6 17 12  0  0.0-1.443549990654e-05-4.547473508865e-13 0.000000000000e+00
    2.600000000000e+01 5.506250000000e+01 4.949491880489e-09-1.499373029351e+00
    2.762302756310e-06 9.700066293590e-03 1.001544296741e-05 5.153653623581e+03
    3.024000000000e+05 1.881271600723e-07-5.121092739897e-01-9.313225746155e-08
    9.365319302683e-01 1.713750000000e+02 6.676586323305e-01-8.053549748387e-09
   -2.285809498855e-11 1.000000000000e+00 2.110000000000e+03 0.000000000000e+00
    2.400000000000e+00 0.000000000000e+00 2.793967723846e-09 2.600000000000e+01
    2.952000000000e+05 4.000000000000e+00
31 20  6 17 12  0  0.0-4.971120506525e-05-2.501110429876e-12 0.000000000000e+00
    9.800000000000e+01 7.756250000000e+01 4.408397913182e-09-2.824703130761e+00
    3.961846232414e-06 9.516236837953e-03 1.093000173569e-05 5.153603206635e+03
    3.024000000000e+05-1.545995473862e-07-4.240130553086e-01-6.332993507385e-08
    9.577388208433e-01 1.699687500000e+02 1.344660419190e-01-7.752465778460e-09
   -6.428839215530e-12 1.000000000000e+00 2.110000000000e+03 0.000000000000e+00
    3.400000000000e+00 0.000000000000e+00-1.303851604462e-08 9.800000000000e+01
    2.952000000000e+05 4.000000000000e+00
27 20  6 17 12  0  0.0-3.228434361517e-04-9.890754881781e-12 0.000000000000e+00
    6.100000000000e+01-7.528125000000e+01 4.360895934534e-09 3.849743037021e-01
   -3.788620233536e-06 8.304390357807e-03 4.349276423454e-06 5.153665351868e+03
    3.024000000000e+05 4.470348358154e-08 1.642593259368e+00 1.303851604462e-07
    9.777709691827e-01 3.004062500000e+02 5.727034286080e-01-8.262129865158e-09
   -4.410898017322e-10 1.000000000000e+00 2.110000000000e+03 0.000000000000e+00
    2.400000000000e+00 0.000000000000e+00 1.862645149231e-09 6.100000000000e+01
    2.952000000000e+05 4.000000000000e+00
15 20  6 17 12  0  0.0-2.236575819552e-04 2.614797267597e-12 0.000000000000e+00
    4.300000000000e+01-2.771875000000e+01 5.542730876989e-09-4.347937711572e-01
   -1.236796379089e-06 1.233745994978e-02 6.200745701790e-06 5.153695613861e+03
    3.024000000000e+05-1.862645149231e-08-1.603806589028e+00 1.788139343262e-07
    9.278190301068e-01 2.434687500000e+02 8.844107616353e-01-8.719648922663e-09
   -1.985797002130e-10 1.000000000000e+00 2.110000000000e+03 0.000000000000e+00
    2.400000000000e+00 0.000000000000e+00-1.071020960808e-08 4.300000000000e+01
    2.952000000000e+05 4.000000000000e+00
 9 20  6 17 12  0  0.0-2.378816716373e-04-6.821210263297e-12 0.000000000000e+00
    9.000000000000e+01-3.175000000000e+01 4.887703592473e-09 7.575485056103e-01
   -1.655891537666e-06 1.516719465144e-03 6.705522537231e-06 5.153707605362e+03
    3.024000000000e+05-5.587935447693e-09-1.513721133841e+00-3.166496753693e-08
    9.522754537979e-01 2.423437500000e+02 1.804594281007e+00-8.234985877359e-09
   -2.525105180766e-10 1.000000000000e+00 2.110000000000e+03 0.000000000000e+00
    2.400000000000e+00 0.000000000000e+00 1.396983861923e-09 9.000000000000e+01
    2.952000000000e+05 4.000000000000e+00
20 20  6 17 12  0  0.0 5.274931900203e-04-1.136868377216e-13 0.000000000000e+00
    3.200000000000e+01 1.962500000000e+01 5.143428530158e-09-2.270623592884e+00
    1.177191734314e-06 5.201489082538e-03 6.852671504021e-06 5.153646711349e+03
    3.024000000000e+05-5.960464477539e-08-2.679416344629e+00 3.166496753693e-08
    9.343980360345e-01 2.349062500000e+02 2.669687728741e+00-8.314989209819e-09
    4.885917803802e-10 1.000000000000e+00 2.110000000000e+03 0.000000000000e+00
    2.400000000000e+00 0.000000000000e+00-8.847564458847e-09 3.200000000000e+01
    2.952000000000e+05 4.000000000000e+00
14 20  6 17 12  0  0.0-5.244277417660e-06 2.728484105319e-12 0.000000000000e+00
    1.120000000000e+02-2.256250000000e+01 4.716625037793e-09 1.894410843073e-01
   -1.320615410805e-06 1.151611248497e-02 7.942318916321e-06 5.153653335571e+03
    3.024000000000e+05-1.620501279831e-07-1.417605135344e+00 9.313225746155e-08
    9.600166866970e-01 2.286250000000e+02-1.913037529440e+00-8.211413466902e-09
   -3.435857402966e-10 1.000000000000e+00 2.110000000000e+03 0.000000000000e+00
    2.400000000000e+00 0.000000000000e+00-9.778887033463e-09 1.120000000000e+02
    2.952000000000e+05 4.000000000000e+00
30 20  6 17 12  0  0.0-2.435343340039e-04-7.958078640513e-12 0.000000000000e+00
    9.600000000000e+01 5.581250000000e+01 4.906990110120e-09-2.524613751839e+00
    2.792105078697e-06 4.707009298727e-03 1.088716089725e-05 5.153638597488e+03
    3.024000000000e+05-3.352761268616e-08-4.172911076553e-01-1.043081283569e-07
    9.386254230936e-01 1.628750000000e+02-2.848977440169e+00-8.059621429869e-09
   -1.642925577302e-11 1.000000000000e+00 2.110000000000e+03 0.000000000000e+00
    2.400000000000e+00 0.000000000000e+00 3.725290298462e-09 9.600000000000e+01
    2.952000000000e+05 4.000000000000e+00
21 20  6 17 12  0  0.0 1.268973574042e-05 4.774847184308e-12 0.000000000000e+00
    7.800000000000e+01-5.659375000000e+01 4.218389998590e-09 2.312067937721e+00
   -2.862885594368e-06 2.383738569915e-02 1.001358032227e-05 5.155133157730e+03
    3.024000000000e+05 2.812594175339e-07 2.623843888921e+00 5.029141902924e-08
    9.536276216639e-01 1.752187500000e+02-1.320593124393e+00-7.467453906572e-09
   -6.143113028173e-11 1.000000000000e+00 2.110000000000e+03 0.000000000000e+00
    2.400000000000e+00 0.000000000000e+00-1.024454832077e-08 7.800000000000e+01
    2.952000000000e+05 4.000000000000e+00
12 20  6 17 12  0  0.0 1.050354912877e-04-4.433786671143e-12 0.000000000000e+00
    9.100000000000e+01 7.106250000000e+01 4.378396663510e-09 3.100195764352e+00
    3.673136234283e-06 8.031437871978e-03 3.132969141006e-06 5.153677505493e+03
    3.024000000000e+05 1.192092895508e-07 6.663560266661e-01-1.974403858185e-07
    9.781888853791e-01 3.239687500000e+02 1.163197475661e+00-8.061050060806e-09
    9.821837690392e-11 1.000000000000e+00 2.110000000000e+03 0.000000000000e+00
    2.400000000000e+00 0.000000000000e+00-1.210719347000e-08 9.100000000000e+01
    2.952000000000e+05 4.000000000000e+00
11 20  6 17 12  0  0.0-2.462747506797e-04 1.068656274583e-11 0.000000000000e+00
    1.830000000000e+02-9.409375000000e+01 5.249861534948e-09-2.248711511426e+00
   -4.732981324196e-06 1.601144415326e-02 8.417293429375e-06 5.153721647263e+03
    3.024000000000e+05 1.210719347000e-07 2.222595392545e+00 3.147870302200e-07
    9.129167034908e-01 1.890937500000e+02 1.993816005137e+00-8.238557454701e-09
   -2.607251459631e-10 1.000000000000e+00 2.110000000000e+03 0.000000000000e+00
    2.400000000000e+00 0.000000000000e+00-1.257285475731e-08 1.830000000000e+02
    2.952000000000e+05 4.000000000000e+00
